PERSEUS-M1              
1 40039U 14033AF  26165.36004588  .00001117  00000+0  10597-3 0  9995
2 40039  97.9644 109.4456 0010512 312.2620  47.7708 14.95623960650213
POLYITAN-1              
1 40042U 14033AJ  26165.57225492  .00017042  00000+0  53332-3 0  9999
2 40042  98.0937 191.5859 0008445 148.6714 211.5031 15.33175066653192
TIGRISAT                
1 40043U 14033AK  26165.35351954  .00002110  00000+0  24722-3 0  9990
2 40043  97.7824 315.4300 0050676  84.2807 276.4183 14.85153048645206
AEROCUBE 6A             
1 40045U 14033AM  26165.35185633  .00005921  00000+0  49753-3 0  9995
2 40045  97.7231 332.3304 0039141  27.6491 332.6801 14.98083113646196
AEROCUBE 6B             
1 40046U 14033AN  26165.42367496  .00005406  00000+0  43797-3 0  9993
2 40046  97.7233 332.1856 0038522  18.8590 341.4050 14.99547273646347
CANX-4                  
1 40055U 14034C   26165.58497286  .00000843  00000+0  11540-3 0  9993
2 40055  98.3125  40.8025 0013343  25.1162 335.0695 14.81260440644144
CANX-5                  
1 40056U 14034D   26165.58343632  .00000848  00000+0  11602-3 0  9993
2 40056  98.3127  40.8443 0013354  25.2580 334.9282 14.81277632634957
UKUBE-1                 
1 40074U 14037F   26165.58991263  .00007481  00000+0  42185-3 0  9995
2 40074  98.4229 168.5889 0002543 134.4924 225.6513 15.13518446648164
BRITE-PL2 (HEWELIUSZ)   
1 40119U 14049B   26165.56132922  .00001392  00000+0  13390-3 0  9996
2 40119  97.9095 277.5411 0015205 116.2621 244.0164 14.94585543641050
AEROCUBE 5C             
1 40965U 15058B   26165.48869844  .00002211  00000+0  20255-3 0  9996
2 40965  64.7679 270.9847 0130637  64.3247 297.1289 14.91442860365256
AEROCUBE 7              
1 40966U 15058C   26165.55959769  .00003093  00000+0  25365-3 0  9997
2 40966  64.7629 253.0460 0120364  62.7337 298.5977 14.95710972365562
FOX-1A (AO-85)          
1 40967U 15058D   26165.53541613  .00002258  00000+0  20925-3 0  9990
2 40967  64.7761 287.2242 0130280  57.6209 303.7433 14.90958458113178
SINOD-D 1               
1 40968U 15058E   26165.53786565  .00003168  00000+0  25902-3 0  9999
2 40968  64.7761 267.2089 0118870  54.1346 307.0737 14.95891444116264
SNAP-3 ALICE            
1 40970U 15058G   26165.28851277  .00113024  00000+0  13736-2 0  9991
2 40970  64.7497 113.9459 0028838  14.5147 345.6819 15.59474399116439
LMRST-SAT               
1 40971U 15058H   26165.49004389  .00002091  00000+0  19616-3 0  9994
2 40971  64.7766 283.6979 0131931  59.6772 301.7313 14.90579336113153
SNAP-3 EDDIE            
1 40972U 15058J   26165.15276583  .00129815  00000+0  15035-2 0  9999
2 40972  64.7423 105.1621 0028488  18.6640 341.5544 15.60680536118557
PROPCUBE 3              
1 40973U 15058K   26165.53224756  .00002707  00000+0  23070-3 0  9996
2 40973  64.7690 260.8306 0123910  60.9641 300.3821 14.94244940114402
BISONSAT                
1 40974U 15058L   26165.39477493  .00011042  00000+0  53594-3 0  9995
2 40974  64.7578 182.6726 0078766  48.4099 312.3740 15.16135124115199
SNAP-3 JIMI             
1 40975U 15058M   26165.52642747  .00004173  00000+0  29166-3 0  9992
2 40975  64.7643 228.1910 0106008  56.4556 304.6631 15.02278476113826
PROPCUBE 1 (FLORA)      
1 40976U 15058N   26165.57680433  .00002199  00000+0  21349-3 0  9993
2 40976  64.7756 303.3259 0130616  61.9436 299.4811 14.89211577115875
SINOD-D 3               
1 40977U 15058P   26165.56350341  .00003009  00000+0  25924-3 0  9999
2 40977  64.7737 284.0115 0119116  59.1708 302.1062 14.94001720114360
HORYU-4                 
1 41340U 16012D   26165.49642719  .00399139  56274-4  10359-2 0  9996
2 41340  30.9847  98.7619 0004716 253.7574 106.2569 15.93820636570381
RAVAN                   
1 41849U 16067B   26165.59767874  .00045289  00000+0  68743-3 0  9997
2 41849  97.9893  54.8715 0004742  39.9901 320.1700 15.54459756527290
CELTEE 1                
1 41850U 16067C   26165.57330207  .00005297  00000+0  25200-3 0  9999
2 41850  98.0676  31.9624 0000787 121.6639 238.4671 15.19660318525486
OPTICUBE 04             
1 41851U 16067D   26165.56048116  .00001830  00000+0  11782-3 0  9993
2 41851  98.0698  17.7073 0016802 123.7241 236.5590 15.09649217524772
AEROCUBE 8D             
1 41852U 16067E   26165.59555326  .00007128  00000+0  29430-3 0  9998
2 41852  98.0686  35.5701 0004545 129.5805 230.5832 15.24366214525670
AEROCUBE 8C             
1 41853U 16067F   26165.55533275  .00007058  00000+0  28923-3 0  9992
2 41853  98.0558  32.7581 0006705  76.2740 283.9242 15.24614101525667
CORVUS BC2              
1 42846U 17042X   26165.40478404  .00003937  00000+0  27160-3 0  9999
2 42846  97.4051 326.8627 0014186 119.3255 240.9392 15.06278341486646
CORVUS BC1              
1 42847U 17042Y   26165.53255686  .00003793  00000+0  26070-3 0  9998
2 42847  97.4088 327.7978 0013200  97.3564 262.9164 15.06449976486690
MAKERSAT 0              
1 43016U 17073D   26164.91423524  .00018871  00000+0  51447-3 0  9999
2 43016  97.4636  47.4083 0105274 284.8512  74.1088 15.31998671465964
